start=new Date('2021-09-07T00:00:00.000Z').valueOf();
sats=[{"DECAY_DATE":null,"RA_OF_ASC_NODE":"337.2788","REV_AT_EPOCH":"12501","MEAN_MOTION":"15.16866970","EPOCH":"2021-09-06T17:18:11.945376","SEMIMAJOR_AXIS":"6893.453","LAUNCH_DATE":"2019-05-24","ECCENTRICITY":"0.00011580","GP_ID":"184223852","MEAN_ELEMENT_THEORY":"SGP4","INCLINATION":"52.9971","PERIAPSIS":"514.520","CENTER_NAME":"EARTH","OBJECT_NAME":"STARLINK-24","MEAN_MOTION_DOT":"0.00008059","FILE":"3109923","BSTAR":"0.00041966000000","MEAN_ANOMALY":"267.4142","SITE":"AFETR","OBJECT_ID":"2019-029D","CLASSIFICATION_TYPE":"U","PERIOD":"94.933","REF_FRAME":"TEME","MEAN_MOTION_DDOT":"0.0000000000000","RCS_SIZE":"LARGE","OBJECT_TYPE":"PAYLOAD","TIME_SYSTEM":"UTC","NORAD_CAT_ID":"44238","TLE_LINE2":"2 44238  52.9971 337.2788 0001158  92.6983 267.4142 15.16866970125010","ARG_OF_PERICENTER":"92.6983","ELEMENT_SET_NO":"999","COUNTRY_CODE":"US","APOAPSIS":"516.117","EPHEMERIS_TYPE":"0","TLE_LINE1":"1 44238U 19029D   21249.72097159  .00008059  00000-0  41966-3 0  9991"},{"REF_FRAME":"TEME","CLASSIFICATION_TYPE":"U","PERIOD":"94.587","OBJECT_TYPE":"PAYLOAD","TIME_SYSTEM":"UTC","MEAN_MOTION_DDOT":"0.0000000000000","RCS_SIZE":"LARGE","FILE":"3109923","OBJECT_ID":"2019-029Q","SITE":"AFETR","MEAN_ANOMALY":"6.7862","BSTAR":"0.00015398000000","APOAPSIS":"501.082","COUNTRY_CODE":"US","EPHEMERIS_TYPE":"0","TLE_LINE1":"1 44249U 19029Q   21249.89235124  .00003275  00000-0  15398-3 0  9992","NORAD_CAT_ID":"44249","ELEMENT_SET_NO":"999","TLE_LINE2":"2 44249  52.9851 307.9333 0003668 353.3084   6.7862 15.22415368126131","ARG_OF_PERICENTER":"353.3084","LAUNCH_DATE":"2019-05-24","DECAY_DATE":null,"SEMIMAJOR_AXIS":"6876.695","EPOCH":"2021-09-06T21:24:59.147136","MEAN_MOTION":"15.22415368","REV_AT_EPOCH":"12613","RA_OF_ASC_NODE":"307.9333","OBJECT_NAME":"STARLINK-61","PERIAPSIS":"496.037","CENTER_NAME":"EARTH","MEAN_MOTION_DOT":"0.00003275","GP_ID":"184222600","ECCENTRICITY":"0.00036680","INCLINATION":"52.9851","MEAN_ELEMENT_THEORY":"SGP4"},{"TIME_SYSTEM":"UTC","OBJECT_TYPE":"PAYLOAD","RCS_SIZE":"LARGE","MEAN_MOTION_DDOT":"0.0000000000000","REF_FRAME":"TEME","PERIOD":"94.802","CLASSIFICATION_TYPE":"U","SITE":"AFETR","OBJECT_ID":"2019-029T","BSTAR":"0.00043731000000","MEAN_ANOMALY":"258.1597","FILE":"3109923","EPHEMERIS_TYPE":"0","TLE_LINE1":"1 44252U 19029T   21249.58704357  .00008944  00000-0  43731-3 0  9991","APOAPSIS":"510.273","COUNTRY_CODE":"US","TLE_LINE2":"2 44252  52.9988 338.5014 0001840 101.9603 258.1597 15.18952930125623","ARG_OF_PERICENTER":"101.9603","ELEMENT_SET_NO":"999","NORAD_CAT_ID":"44252","LAUNCH_DATE":"2019-05-24","EPOCH":"2021-09-06T14:05:20.564448","SEMIMAJOR_AXIS":"6887.141","RA_OF_ASC_NODE":"338.5014","REV_AT_EPOCH":"12562","MEAN_MOTION":"15.18952930","DECAY_DATE":null,"MEAN_MOTION_DOT":"0.00008944","CENTER_NAME":"EARTH","PERIAPSIS":"507.739","OBJECT_NAME":"STARLINK-71","INCLINATION":"52.9988","MEAN_ELEMENT_THEORY":"SGP4","ECCENTRICITY":"0.00018400","GP_ID":"184223350"},{"MEAN_ELEMENT_THEORY":"SGP4","INCLINATION":"52.9969","ECCENTRICITY":"0.00025760","GP_ID":"184223602","MEAN_MOTION_DOT":"0.00042436","PERIAPSIS":"419.782","CENTER_NAME":"EARTH","OBJECT_NAME":"STARLINK-43","RA_OF_ASC_NODE":"210.6562","REV_AT_EPOCH":"12762","MEAN_MOTION":"15.48356974","EPOCH":"2021-09-06T22:05:49.273152","SEMIMAJOR_AXIS":"6799.669","DECAY_DATE":null,"LAUNCH_DATE":"2019-05-24","TLE_LINE2":"2 44257  52.9969 210.6562 0002576  90.2257 269.9045 15.48356974127626","ARG_OF_PERICENTER":"90.2257","ELEMENT_SET_NO":"999","NORAD_CAT_ID":"44257","EPHEMERIS_TYPE":"0","TLE_LINE1":"1 44257U 19029Y   21249.92070918  .00042436  00000-0  79271-3 0  9995","COUNTRY_CODE":"US","APOAPSIS":"423.286","BSTAR":"0.00079271000000","MEAN_ANOMALY":"269.9045","SITE":"AFETR","OBJECT_ID":"2019-029Y","FILE":"3109923","MEAN_MOTION_DDOT":"0.0000000000000","RCS_SIZE":"LARGE","OBJECT_TYPE":"PAYLOAD","TIME_SYSTEM":"UTC","CLASSIFICATION_TYPE":"U","PERIOD":"93.002","REF_FRAME":"TEME"},{"GP_ID":"184200294","ECCENTRICITY":"0.00062920","MEAN_ELEMENT_THEORY":"SGP4","INCLINATION":"52.9882","OBJECT_NAME":"STARLINK-70","PERIAPSIS":"340.565","CENTER_NAME":"EARTH","MEAN_MOTION_DOT":"0.00234835","DECAY_DATE":null,"MEAN_MOTION":"15.74943286","RA_OF_ASC_NODE":"233.0572","REV_AT_EPOCH":"12812","SEMIMAJOR_AXIS":"6722.930","EPOCH":"2021-09-06T10:33:59.459328","LAUNCH_DATE":"2019-05-24","NORAD_CAT_ID":"44281","ELEMENT_SET_NO":"999","TLE_LINE2":"2 44281  52.9882 233.0572 0006292  74.0976 286.0735 15.74943286128123","ARG_OF_PERICENTER":"74.0976","COUNTRY_CODE":"US","APOAPSIS":"349.025","EPHEMERIS_TYPE":"0","TLE_LINE1":"1 44281U 19029AY  21249.44027152  .00234835  00000-0  15118-2 0  9996","FILE":"3109753","MEAN_ANOMALY":"286.0735","BSTAR":"0.00151180000000","OBJECT_ID":"2019-029AY","SITE":"AFETR","CLASSIFICATION_TYPE":"U","PERIOD":"91.432","REF_FRAME":"TEME","RCS_SIZE":"LARGE","MEAN_MOTION_DDOT":"0.0000000000000","TIME_SYSTEM":"UTC","OBJECT_TYPE":"PAYLOAD"},{"EPOCH":"2021-09-06T07:41:44.134080","SEMIMAJOR_AXIS":"6842.793","REV_AT_EPOCH":"12623","RA_OF_ASC_NODE":"259.8995","MEAN_MOTION":"15.33743291","DECAY_DATE":null,"LAUNCH_DATE":"2019-05-24","INCLINATION":"53.0176","MEAN_ELEMENT_THEORY":"SGP4","ECCENTRICITY":"0.00029430","GP_ID":"184194925","MEAN_MOTION_DOT":"0.00013817","PERIAPSIS":"462.644","CENTER_NAME":"EARTH","OBJECT_NAME":"STARLINK-80","SITE":"AFETR","OBJECT_ID":"2019-029AZ","BSTAR":"0.00042801000000","MEAN_ANOMALY":"214.8392","FILE":"3109699","TIME_SYSTEM":"UTC","OBJECT_TYPE":"PAYLOAD","RCS_SIZE":"LARGE","MEAN_MOTION_DDOT":"0.0000000000000","REF_FRAME":"TEME","CLASSIFICATION_TYPE":"U","PERIOD":"93.888","TLE_LINE2":"2 44282  53.0176 259.8995 0002943 145.2801 214.8392 15.33743291126231","ARG_OF_PERICENTER":"145.2801","ELEMENT_SET_NO":"999","NORAD_CAT_ID":"44282","TLE_LINE1":"1 44282U 19029AZ  21249.32064970  .00013817  00000-0  42801-3 0  9998","EPHEMERIS_TYPE":"0","APOAPSIS":"466.672","COUNTRY_CODE":"US"},{"EPHEMERIS_TYPE":"0","TLE_LINE1":"1 44287U 19029BE  21249.29798110  .00307456  00000-0  16027-2 0  9994","APOAPSIS":"335.897","COUNTRY_CODE":"US","ELEMENT_SET_NO":"999","TLE_LINE2":"2 44287  52.9848 220.4777 0006004  95.0700 265.1005 15.79496534127566","ARG_OF_PERICENTER":"95.0700","NORAD_CAT_ID":"44287","OBJECT_TYPE":"PAYLOAD","TIME_SYSTEM":"UTC","MEAN_MOTION_DDOT":"0.0000000000000","RCS_SIZE":"LARGE","REF_FRAME":"TEME","CLASSIFICATION_TYPE":"U","PERIOD":"91.168","OBJECT_ID":"2019-029BE","SITE":"AFETR","MEAN_ANOMALY":"265.1005","BSTAR":"0.00160270000000","FILE":"3109699","MEAN_MOTION_DOT":"0.00307456","OBJECT_NAME":"STARLINK-76","PERIAPSIS":"327.839","CENTER_NAME":"EARTH","INCLINATION":"52.9848","MEAN_ELEMENT_THEORY":"SGP4","GP_ID":"184195677","ECCENTRICITY":"0.00060040","LAUNCH_DATE":"2019-05-24","SEMIMAJOR_AXIS":"6710.003","EPOCH":"2021-09-06T07:09:05.567040","MEAN_MOTION":"15.79496534","RA_OF_ASC_NODE":"220.4777","REV_AT_EPOCH":"12756","DECAY_DATE":null},{"LAUNCH_DATE":"2019-11-11","MEAN_MOTION":"15.06403779","RA_OF_ASC_NODE":"10.6120","REV_AT_EPOCH":"10083","SEMIMAJOR_AXIS":"6925.337","EPOCH":"2021-09-06T20:29:09.839904","DECAY_DATE":null,"MEAN_MOTION_DOT":"0.00001571","OBJECT_NAME":"STARLINK-1007","CENTER_NAME":"EARTH","PERIAPSIS":"546.460","MEAN_ELEMENT_THEORY":"SGP4","INCLINATION":"53.0567","GP_ID":"184224393","ECCENTRICITY":"0.00010710","RCS_SIZE":"LARGE","MEAN_MOTION_DDOT":"0.0000000000000","TIME_SYSTEM":"UTC","OBJECT_TYPE":"PAYLOAD","CLASSIFICATION_TYPE":"U","PERIOD":"95.592","REF_FRAME":"TEME","MEAN_ANOMALY":"249.7105","BSTAR":"0.00012433000000","OBJECT_ID":"2019-074A","SITE":"AFETR","FILE":"3109923","TLE_LINE1":"1 44713U 19074A   21249.85358611  .00001571  00000-0  12433-3 0  9995","EPHEMERIS_TYPE":"0","COUNTRY_CODE":"US","APOAPSIS":"547.944","ELEMENT_SET_NO":"999","TLE_LINE2":"2 44713  53.0567  10.6120 0001071 110.3999 249.7105 15.06403779100830","ARG_OF_PERICENTER":"110.3999","NORAD_CAT_ID":"44713"},{"DECAY_DATE":null,"RA_OF_ASC_NODE":"10.6738","REV_AT_EPOCH":"10083","MEAN_MOTION":"15.06414244","EPOCH":"2021-09-06T19:58:42.077280","SEMIMAJOR_AXIS":"6925.305","LAUNCH_DATE":"2019-11-11","ECCENTRICITY":"0.00014760","GP_ID":"184223141","MEAN_ELEMENT_THEORY":"SGP4","INCLINATION":"53.0563","PERIAPSIS":"546.148","CENTER_NAME":"EARTH","OBJECT_NAME":"STARLINK-1008","MEAN_MOTION_DOT":"0.00001263","FILE":"3109923","BSTAR":"0.00010365000000","MEAN_ANOMALY":"242.1813","SITE":"AFETR","OBJECT_ID":"2019-074B","PERIOD":"95.591","CLASSIFICATION_TYPE":"U","REF_FRAME":"TEME","RCS_SIZE":"LARGE","MEAN_MOTION_DDOT":"0.0000000000000","TIME_SYSTEM":"UTC","OBJECT_TYPE":"PAYLOAD","NORAD_CAT_ID":"44714","TLE_LINE2":"2 44714  53.0563  10.6738 0001476 117.9325 242.1813 15.06414244100839","ARG_OF_PERICENTER":"117.9325","ELEMENT_SET_NO":"999","COUNTRY_CODE":"US","APOAPSIS":"548.192","EPHEMERIS_TYPE":"0","TLE_LINE1":"1 44714U 19074B   21249.83243145  .00001263  00000-0  10365-3 0  9999"},{"LAUNCH_DATE":"2019-11-11","DECAY_DATE":null,"SEMIMAJOR_AXIS":"6925.366","EPOCH":"2021-09-06T19:42:46.469088","MEAN_MOTION":"15.06394275","REV_AT_EPOCH":"10082","RA_OF_ASC_NODE":"10.7229","OBJECT_NAME":"STARLINK-1009","PERIAPSIS":"546.395","CENTER_NAME":"EARTH","MEAN_MOTION_DOT":"0.00001287","GP_ID":"184222892","ECCENTRICITY":"0.00012070","INCLINATION":"53.0558","MEAN_ELEMENT_THEORY":"SGP4","REF_FRAME":"TEME","PERIOD":"95.593","CLASSIFICATION_TYPE":"U","TIME_SYSTEM":"UTC","OBJECT_TYPE":"PAYLOAD","MEAN_MOTION_DDOT":"0.0000000000000","RCS_SIZE":"LARGE","FILE":"3109923","OBJECT_ID":"2019-074C","SITE":"AFETR","MEAN_ANOMALY":"237.7750","BSTAR":"0.00010528000000","APOAPSIS":"548.067","COUNTRY_CODE":"US","TLE_LINE1":"1 44715U 19074C   21249.82137117  .00001287  00000-0  10528-3 0  9997","EPHEMERIS_TYPE":"0","NORAD_CAT_ID":"44715","ELEMENT_SET_NO":"999","ARG_OF_PERICENTER":"122.3356","TLE_LINE2":"2 44715  53.0558  10.7229 0001207 122.3356 237.7750 15.06394275100826"}];
